{
  "type": "FeatureCollection",
  "features": [
    {
      "type": "Feature",
      "properties": {
        "norad_id": 35744,
        "name": "IRIDIUM 33 DEB",
        "group": "iridium-33-debris",
        "lat": 45.366007962947705,
        "lon": -26.992601320137254,
        "alt_km": 668.3038015854236,
        "timestamp": "2025-12-04T05:42:43.757616+00:00",
        "meta_object_name": "IRIDIUM 33 DEB",
        "meta_object_id": "1997-051RX",
        "meta_epoch": "2025-12-03T16:26:33.199008",
        "meta_mean_motion": 14.70784036,
        "meta_eccentricity": 0.00192992,
        "meta_inclination": 86.3279,
        "meta_ra_of_asc_node": 329.5276,
        "meta_arg_of_pericenter": 226.2399,
        "meta_mean_anomaly": 133.722,
        "meta_ephemeris_type": 0,
        "meta_classification_type": "U",
        "meta_norad_cat_id": 35744,
        "meta_element_set_no": 999,
        "meta_rev_at_epoch": 87198,
        "meta_bstar": 0.0017711667,
        "meta_mean_motion_dot": 0.0001087,
        "meta_mean_motion_ddot": 0,
        "tle_line1": "1 35744U 97051RX  25337.68510647  .00010870  00000+0  17712-2 0  9997",
        "tle_line2": "2 35744  86.3279 329.5276 0019299 226.2399 133.7220 14.70784036871988"
      },
      "geometry": {
        "type": "Point",
        "coordinates": [
          -26.992601320137254,
          45.366007962947705
        ]
      }
    },
    {
      "type": "Feature",
      "properties": {
        "norad_id": 35797,
        "name": "IRIDIUM 33 DEB",
        "group": "iridium-33-debris",
        "lat": 43.272339781910624,
        "lon": 150.42037044598925,
        "alt_km": 612.2568758013813,
        "timestamp": "2025-12-04T05:42:43.757627+00:00",
        "meta_object_name": "IRIDIUM 33 DEB",
        "meta_object_id": "1997-051SF",
        "meta_epoch": "2025-12-03T06:24:58.106016",
        "meta_mean_motion": 14.82331102,
        "meta_eccentricity": 0.0011684,
        "meta_inclination": 86.3357,
        "meta_ra_of_asc_node": 334.3248,
        "meta_arg_of_pericenter": 181.5296,
        "meta_mean_anomaly": 178.5893,
        "meta_ephemeris_type": 0,
        "meta_classification_type": "U",
        "meta_norad_cat_id": 35797,
        "meta_element_set_no": 999,
        "meta_rev_at_epoch": 87200,
        "meta_bstar": 0.0022863,
        "meta_mean_motion_dot": 0.00018353,
        "meta_mean_motion_ddot": 0,
        "tle_line1": "1 35797U 97051SF  25337.26733919  .00018353  00000+0  22863-2 0  9995",
        "tle_line2": "2 35797  86.3357 334.3248 0011684 181.5296 178.5893 14.82331102872007"
      },
      "geometry": {
        "type": "Point",
        "coordinates": [
          150.42037044598925,
          43.272339781910624
        ]
      }
    },
    {
      "type": "Feature",
      "properties": {
        "norad_id": 35806,
        "name": "IRIDIUM 33 DEB",
        "group": "iridium-33-debris",
        "lat": 44.44970312234044,
        "lon": -159.22158293436195,
        "alt_km": 689.8422984155131,
        "timestamp": "2025-12-04T05:42:43.757637+00:00",
        "meta_object_name": "IRIDIUM 33 DEB",
        "meta_object_id": "1997-051SQ",
        "meta_epoch": "2025-11-21T22:04:29.472384",
        "meta_mean_motion": 14.57052239,
        "meta_eccentricity": 0.00159672,
        "meta_inclination": 86.3448,
        "meta_ra_of_asc_node": 29.7928,
        "meta_arg_of_pericenter": 137.8294,
        "meta_mean_anomaly": 222.4146,
        "meta_ephemeris_type": 0,
        "meta_classification_type": "U",
        "meta_norad_cat_id": 35806,
        "meta_element_set_no": 999,
        "meta_rev_at_epoch": 86021,
        "meta_bstar": 0.0011489261,
        "meta_mean_motion_dot": 5.199e-05,
        "meta_mean_motion_ddot": 0,
        "tle_line1": "1 35806U 97051SQ  25325.91978556  .00005199  00000+0  11489-2 0  9999",
        "tle_line2": "2 35806  86.3448  29.7928 0015967 137.8294 222.4146 14.57052239860212"
      },
      "geometry": {
        "type": "Point",
        "coordinates": [
          -159.22158293436195,
          44.44970312234044
        ]
      }
    },
    {
      "type": "Feature",
      "properties": {
        "norad_id": 35809,
        "name": "IRIDIUM 33 DEB",
        "group": "iridium-33-debris",
        "lat": -58.30380006571873,
        "lon": -26.748676659231133,
        "alt_km": 644.5947989416836,
        "timestamp": "2025-12-04T05:42:43.757647+00:00",
        "meta_object_name": "IRIDIUM 33 DEB",
        "meta_object_id": "1997-051ST",
        "meta_epoch": "2025-12-01T17:44:51.390816",
        "meta_mean_motion": 14.75313912,
        "meta_eccentricity": 0.00099663,
        "meta_inclination": 86.3281,
        "meta_ra_of_asc_node": 340.3571,
        "meta_arg_of_pericenter": 290.7283,
        "meta_mean_anomaly": 69.2867,
        "meta_ephemeris_type": 0,
        "meta_classification_type": "U",
        "meta_norad_cat_id": 35809,
        "meta_element_set_no": 999,
        "meta_rev_at_epoch": 86645,
        "meta_bstar": 0.0015973304,
        "meta_mean_motion_dot": 0.00010859,
        "meta_mean_motion_ddot": 0,
        "tle_line1": "1 35809U 97051ST  25335.73948369  .00010859  00000+0  15973-2 0  9993",
        "tle_line2": "2 35809  86.3281 340.3571 0009966 290.7283  69.2867 14.75313912866452"
      },
      "geometry": {
        "type": "Point",
        "coordinates": [
          -26.748676659231133,
          -58.30380006571873
        ]
      }
    },
    {
      "type": "Feature",
      "properties": {
        "norad_id": 35846,
        "name": "IRIDIUM 33 DEB",
        "group": "iridium-33-debris",
        "lat": -5.211921305710708,
        "lon": 62.13598253860869,
        "alt_km": 762.281659152979,
        "timestamp": "2025-12-04T05:42:43.757657+00:00",
        "meta_object_name": "IRIDIUM 33 DEB",
        "meta_object_id": "1997-051SW",
        "meta_epoch": "2025-11-15T14:04:07.017312",
        "meta_mean_motion": 14.42992821,
        "meta_eccentricity": 0.00163082,
        "meta_inclination": 86.3745,
        "meta_ra_of_asc_node": 70.4244,
        "meta_arg_of_pericenter": 263.1259,
        "meta_mean_anomaly": 96.8086,
        "meta_ephemeris_type": 0,
        "meta_classification_type": "U",
        "meta_norad_cat_id": 35846,
        "meta_element_set_no": 999,
        "meta_rev_at_epoch": 70937,
        "meta_bstar": 0.0011049939,
        "meta_mean_motion_dot": 3.722e-05,
        "meta_mean_motion_ddot": 0,
        "tle_line1": "1 35846U 97051SW  25319.58619233  .00003722  00000+0  11050-2 0  9997",
        "tle_line2": "2 35846  86.3745  70.4244 0016308 263.1259  96.8086 14.42992821709373"
      },
      "geometry": {
        "type": "Point",
        "coordinates": [
          62.13598253860869,
          -5.211921305710708
        ]
      }
    },
    {
      "type": "Feature",
      "properties": {
        "norad_id": 35848,
        "name": "IRIDIUM 33 DEB",
        "group": "iridium-33-debris",
        "lat": 15.474403326137185,
        "lon": -161.0520561845311,
        "alt_km": 633.6726134647088,
        "timestamp": "2025-12-04T05:42:43.757667+00:00",
        "meta_object_name": "IRIDIUM 33 DEB",
        "meta_object_id": "1997-051SY",
        "meta_epoch": "2025-12-01T10:21:45.439488",
        "meta_mean_motion": 14.7824162,
        "meta_eccentricity": 0.00067103,
        "meta_inclination": 86.3925,
        "meta_ra_of_asc_node": 21.2088,
        "meta_arg_of_pericenter": 240.9704,
        "meta_mean_anomaly": 119.0844,
        "meta_ephemeris_type": 0,
        "meta_classification_type": "U",
        "meta_norad_cat_id": 35848,
        "meta_element_set_no": 999,
        "meta_rev_at_epoch": 66523,
        "meta_bstar": 0.0018930249,
        "meta_mean_motion_dot": 0.00013775,
        "meta_mean_motion_ddot": 0,
        "tle_line1": "1 35848U 97051SY  25335.43177592  .00013775  00000+0  18930-2 0  9991",
        "tle_line2": "2 35848  86.3925  21.2088 0006710 240.9704 119.0844 14.78241620665238"
      },
      "geometry": {
        "type": "Point",
        "coordinates": [
          -161.0520561845311,
          15.474403326137185
        ]
      }
    },
    {
      "type": "Feature",
      "properties": {
        "norad_id": 35850,
        "name": "IRIDIUM 33 DEB",
        "group": "iridium-33-debris",
        "lat": 55.664035817880084,
        "lon": 162.75159411413924,
        "alt_km": 629.5397892956653,
        "timestamp": "2025-12-04T05:42:43.757677+00:00",
        "meta_object_name": "IRIDIUM 33 DEB",
        "meta_object_id": "1997-051TA",
        "meta_epoch": "2025-12-02T07:40:10.229376",
        "meta_mean_motion": 14.7843662,
        "meta_eccentricity": 0.0007989,
        "meta_inclination": 86.3497,
        "meta_ra_of_asc_node": 348.9861,
        "meta_arg_of_pericenter": 227.4621,
        "meta_mean_anomaly": 132.5925,
        "meta_ephemeris_type": 0,
        "meta_classification_type": "U",
        "meta_norad_cat_id": 35850,
        "meta_element_set_no": 999,
        "meta_rev_at_epoch": 71203,
        "meta_bstar": 0.0019125,
        "meta_mean_motion_dot": 0.00013983,
        "meta_mean_motion_ddot": 0,
        "tle_line1": "1 35850U 97051TA  25336.31956284  .00013983  00000+0  19125-2 0  9993",
        "tle_line2": "2 35850  86.3497 348.9861 0007989 227.4621 132.5925 14.78436620712037"
      },
      "geometry": {
        "type": "Point",
        "coordinates": [
          162.75159411413924,
          55.664035817880084
        ]
      }
    }
  ]
}